Name;Street;City;State;ZIP;Number
;5519 Timber Leaf Way;;;;(205) 965-1486
;7248 Bishop Rd;;;;(205) 428-8176
;2035 Hickory Ln;;;;(205) 255-6722
;1136 4th Way;;;;(205) 744-2326
;93 Monterey Ct;;;;(205) 536-6492
;648 Fulton Ave SW;;;;(205) 296-5189
;1724 Cullman Ave;;;;(205) 401-7055
;5809 Court Q;;;;(205) 925-6228
;1533 1st Ct W;;;;(205) 833-1338
;813 48th St W;;;;(205) 788-9210
;2661 Bush Blvd;;;;(205) 786-5149
;5112 Crowley Dr;;;;(205) 568-6572
;2060 Arcadia Rd;;;;(205) 674-1240
;2508 Bow String Dr;;;;(205) 798-1224
;233 Cimmaron Dr;;;;(205) 281-6676
;1000 18th Ct NW;;;;(205) 200-5841
;1009 Springview St;;;;(205) 527-2689
;1848 6th St NW;;;;(205) 253-4776
;405 Orchid Rd;;;;(205) 492-4389
;511 Roebuck Dr;;;;(205) 936-8103
;77 Moonglow Dr;;;;(205) 854-2058
;304 21st Ave NE;;;;(205) 595-2288
;3080 Teresa Dr;;;;(256) 841-1863
;219 Ridge Park Cir;;;;(205) 490-1434
;4829 Cove Creek Dr SE;;;;(256) 337-0299
;129 Bridge Crest Dr;;;;(256) 348-1853
;124 Trailing Vine Ln;;;;(256) 975-0390
;128 Memory Ln;;;;(256) 429-8466
;15575 Ironcrest Dr NW;;;;(256) 312-1578
;25739 Iron Gate Dr;;;;(251) 471-5136
;115 Fields Pond Dr;;;;(205) 222-4300
;103 David Barnes Dr;;;;(765) 583-0751
;24849 Mahalo Cir;;;;(256) 483-2448
;348 Summerglen Rd SW;;;;(678) 314-2334
;287 Abercorn Dr;;;;(843) 609-1514
;215 Grantham Cir;;;;(205) 260-7041
;112 Anita Dr;;;;(256) 837-6062
;99 Wood Creek Dr;;;;(256) 417-2490
;170 Melody Ln;;;;(256) 325-3625
;203 Tweed Dr;;;;(334) 233-7216
;107 Mill Creek Xing;;;;(205) 440-7284
;103 Montrose Dr;;;;(256) 617-9909
;113 Prairie Ct;;;;(256) 694-1593
;148 Foxfield Dr;;;;(256) 325-4076
;377 College Park Ct NW;;;;(256) 533-7217
;804 Minor St NE;;;;(334) 791-6839
;1703 Mountainbrook Dr SE;;;;(256) 551-9898
;128 Colby Dr NE;;;;(256) 213-6075
;1703 Randolph Ave SE;;;;(256) 489-5102
;708 Fagan Springs Dr SE;;;;(407) 247-0258
;5 Hope St NW;;;;(361) 945-9333
;3000 Kincade Way SE;;;;(281) 961-4092
;2906 Oakleigh Ln SE;;;;(256) 539-3806
;3013 Mallard Point Dr SE;;;;(850) 980-3948
;383 Brockway Rd;;;;(804) 516-4039
;107 Honey Brook Dr;;;;(256) 829-9945
;111 Morning Dew Road;;;;(814) 242-6771
;1006 Tascosa Dr SE;;;;(256) 426-2089
;8023 Lauderdale Rd SW;;;;(256) 230-6641
;11415 Crestfield Dr SE;;;;(256) 489-9949
;2523 First Hill Cir SW;;;;(256) 652-3898
;10027 Bayreuth Dr SE;;;;(256) 417-5470
;10215 Melanie Dr SE;;;;(321) 795-4618
;2758 Slate Dr SW;;;;(256) 417-5628
;2500 First Hill Cir SW;;;;(256) 244-7300
;2708 Gaines Rd SE;;;;(256) 426-7829
;15003 Ashwood Cir SE;;;;(256) 885-0165
;2506 Oak Place Dr SE;;;;(256) 898-4519
;100 Manor View Cir;;;;(256) 945-7834
;117 Magnus Ave SW;;;;(253) 905-2064
;1724 Spanish Trace Dr;;;;(334) 246-2652
;311 Ponce De Leon Dr W;;;;(251) 675-3597
;3416 Twin Lakes Ct;;;;(251) 308-3968
;1755 Spanish Trace Dr;;;;(251) 679-8505
;1529 Homestead Dr;;;;(251) 649-0421
;1737 Hunter Ave;;;;(251) 554-5329
;2955 Cottage Hill Rd;;;;(251) 422-1853
;255 S Broad St;;;;(251) 786-3272
;60 Lee St;;;;(617) 869-1740
;1109 Skyland Cir E;;;;(251) 472-5638
;2252 Dauphin St;;;;(337) 789-7741
;6677 Hounds Run S;;;;(251) 344-1024
;416 Pine Ct;;;;(251) 460-9052
;1113 Matterhorn St;;;;(251) 610-4432
;6131 Venetian Way N;;;;(214) 381-2683
;5812 Fern Valley Rd;;;;(251) 348-7084
;1279 Savannah Dr;;;;(251) 344-7831
;800 Henckley Ave;;;;(251) 649-6972
;233 E Petain St;;;;(251) 378-5421
;1700 Carlisle Dr E;;;;(251) 447-2933
;3561 Country Wood Ct;;;;(251) 442-5223
;3136 Lloyds Ln;;;;(386) 775-7451
;2639 Lynndell Dr;;;;(251) 607-1126
;1116 Forest Dale Dr;;;;(251) 508-3325
;1102 Forest Hill Dr;;;;(334) 342-8972
;7162 Wynnridge Dr;;;;(228) 669-9962
;7930 Cottage Hill Rd;;;;(251) 666-4006
;5040 Government Blvd;;;;(618) 241-9415
;3265 Graham Rd N;;;;(251) 649-4276
;1553 Monterey Pl;;;;(251) 680-7664
;1766 Dauphin St;;;;(251) 255-4975
;613 Bishop Ln N;;;;(251) 342-7001
;4209 Rochester Rd;;;;(251) 610-9552
;251 Suffolk Rd;;;;(251) 344-9168
;6809 Autumn Ridge Dr;;;;(251) 666-5102
;6371 Barnes Rd;;;;(251) 653-1149
;8150 Pinebough Ave;;;;(334) 830-0551
;8864 Fall Ct;;;;(251) 288-4732
;9811 Potomac Ridge Dr;;;;(251) 631-3028
;9910 Thresher Ct;;;;(334) 621-8415
;2265 Bobwhite Ct;;;;(251) 930-1432
;3441 Summer Woods Dr;;;;(240) 314-9454
;9253 Champion Hills Cv;;;;(224) 321-3766
;9013 Poulos Ave;;;;(706) 905-6570
;8273 Magnolia Village Dr S;;;;(251) 776-6958
;10060 Thresher Ct;;;;(251) 303-6011
;325 Bridlebrook Blvd;;;;(334) 467-0233
;3507 Fernway Dr;;;;(317) 731-6494
;4632 Harvest Way;;;;(334) 578-0172
;3960 Hickory Dr;;;;(334) 523-1246
;125 Hobbie Dr;;;;(334) 264-2962
;3583 Princess Ann St;;;;(334) 271-0353
;3120 Fernway Dr;;;;(334) 328-4627
;4711 Queensbury Ct;;;;(334) 288-5416
;3414 Old Dobbin Rd;;;;(301) 516-3388
;2681 Whispering Pine Dr;;;;(334) 288-2346
;3933 Croydon Rd;;;;(334) 277-4976
;2124 Tullis Dr;;;;(334) 280-0036
;422 Herron St;;;;(334) 265-2063
;143 Fox Hollow Rd;;;;(251) 978-8779
;5721 Blevins Cir;;;;(303) 725-0559
;172 Tensaw Rd;;;;(334) 271-0625
;7543 Forest Edge Ln;;;;(334) 244-1559
;6100 Margo Pl;;;;(334) 819-7940
;6417 Chaprice Ln;;;;(334) 270-8949
;8749 Polo Rdg;;;;(912) 704-7423
;5609 Sweet Meadow Dr;;;;(334) 647-1403
;461 Hillabee Dr;;;;(334) 272-5807
;1197 Old Ware Rd;;;;(334) 430-8731
;8825 Dunlake Dr;;;;(334) 593-7665
;7218 Timbermill Dr;;;;(334) 356-8991
;8604 Melbourne Cir;;;;(850) 685-7738
;3800 Colline Dr;;;;(334) 281-2719
;1014 Haylee Brook Ln;;;;(256) 442-4501
;8654 Rockbridge Cir;;;;(334) 202-2809
;1718 Radcliffe Rd;;;;(334) 272-6878
;9860 Wyncrest Cir;;;;(334) 399-3882
;1617 S Perry St;;;;(334) 264-9129
;7590 Pelway Dr;;;;(701) 509-1392
;4202 Upham Rd;;;;(937) 657-6617
;469 Springside Dr;;;;(937) 479-1027
;5016 Sycamore View Dr;;;;(937) 902-8568
;11374 Wyckoff Cir;;;;(937) 885-9900
;170 Winchcombe Dr;;;;(937) 438-2989
;6360 Shadow Lake Trl;;;;(937) 694-1013
;9864 Blue Spruce Dr;;;;(937) 581-7773
;45064 Dutton Way;;;;(845) 344-1585
;45105 Dutton Way;;;;(760) 369-9685
;3609 Sugar Cane Cir;;;;(910) 339-9031
;788 Galloway Dr;;;;(910) 670-1347
;709 Argyll Rd;;;;(910) 779-0101
;330 Westview Dr;;;;(203) 848-7106
;3519 Edgeside Ct;;;;(843) 718-6291
;2412 Rolling Hill Rd;;;;(919) 787-8205
;6504 Rannock Ct;;;;(910) 578-1902
;1613 Banbury Dr;;;;(910) 484-6285
;1983 Fairforest Dr;;;;(571) 484-6516
;430 Rollingwood Cir;;;;(269) 352-2230
;806 Westmont Dr UNIT 3;;;;(910) 890-4278
;2736 Plum Ridge Rd;;;;(910) 987-8236
;2321 Saltwood Rd;;;;(910) 578-2444
;1300 Aultroy Dr;;;;(910) 339-7179
;3539 Standard Dr;;;;(910) 260-8688
;4020 Stretton Ave;;;;(585) 492-0848
;2916 Schonner Ct;;;;(910) 868-5496
;2233 Chasewater Rd;;;;(910) 916-4343
;6792 Surrey Rd;;;;(910) 423-8304
;2731 Bardolino Dr;;;;(910) 229-9272
;521 Polygon Pl;;;;(910) 858-9890
;112 Partridge Rd;;;;(910) 248-6777
;5635 Thackeray Dr;;;;(910) 487-0215
;6004 Dalton Rd;;;;(910) 339-0116
;7049 Calamar Dr;;;;(910) 868-3483
;729 Sunny Crest Dr;;;;(765) 505-0076
;7267 Ryan St;;;;(910) 229-2907
;504 Murray Fork Dr;;;;(707) 631-3490
;1507 Valiant Dr;;;;(910) 868-6763
;298 Growers Way;;;;(910) 339-4090
;9308 Oak Meadow Ct;;;;(262) 384-0592
;1412 Oldtown Dr;;;;(910) 229-1629
;523 Anson Dr;;;;(910) 488-7914
;154 Lofton Dr;;;;(910) 864-5867
;729 Stonington Dr;;;;(407) 433-7092
;423 Lionshead Rd;;;;(913) 306-1482
;459 Grayton Pl;;;;(910) 488-9840
;2417 Crosshill St;;;;(910) 567-4989
;2050 John Hall Rd;;;;(910) 483-6018
;309 Cornhill Rd;;;;(614) 406-2745
;2806 Baywood Rd;;;;(910) 308-6728
;3308 Buckley Dr;;;;(630) 351-5473
;6808 Buttermere Dr;;;;(951) 698-2527
;1904 Sir Michael Dr;;;;(704) 351-3942
;5332 Pringle Way;;;;(910) 568-4329
;1410 War Admiral Ct;;;;(228) 229-0422
;3228 Masters Dr;;;;(910) 988-5824
;4405 Low Oak Ct;;;;(910) 992-2093
;4453 Home Stakes Dr;;;;(661) 350-1246
;329 Belmont Dr;;;;(719) 464-2089
;615 Thorncliff Dr;;;;(910) 578-4953
;784 Fairfield Cir;;;;(925) 817-7570
;333 Somerset Dr;;;;(502) 240-8430
;279 Mayor Ct;;;;(910) 944-9532
;167 Dairy Ct;;;;(910) 426-8362
;413 Gibson Dr;;;;(828) 212-1254
;202 Americana Dr;;;;(757) 464-1552
;118 Wallflower Rd;;;;(910) 875-8656
;132 Windsor Ln;;;;(910) 843-5513
;102 Stewarts Creek Rd;;;;(910) 624-9285
;44 Lesa Dr;;;;(731) 668-0243
;945 Skyline Dr;;;;(731) 660-3013
;500 Westwood Ave;;;;(815) 469-5489
;56 Sherrell Dr;;;;(731) 424-8017
;73 Ronald Dr;;;;(731) 217-7176
;65 Wallace Rd;;;;(731) 256-1352
;220 B St;;;;(731) 427-0293
;120 Woods Edge Dr;;;;(731) 736-2146
;32 Denim Cv;;;;(731) 427-6739
;42 Gumwood Cv;;;;(731) 616-3124
;301 Weatheridge Dr;;;;(731) 984-7003
;85 Duncan Dr;;;;(731) 325-2186
;7010 Highway 22;;;;(731) 632-1763
;42428 N 7th St;;;;(623) 465-2866
;1119 E Saddle Mountain Rd;;;;(850) 377-3874
;39602 N Maidstone Ct;;;;(623) 551-8834
;40117 N Hickok Trl;;;;(928) 778-4888
;4545 W Moss Springs Rd;;;;(623) 551-6135
;2224 W Speer Trl;;;;(602) 758-8611
;42035 N Bridlewood Way;;;;(206) 714-4124
;2519 W Night Owl Ln;;;;(623) 580-6957
;31611 N 20th Ave;;;;(860) 658-4351
;33025 N 10th St;;;;(480) 239-9229
;1317 E Paint Your Wagon Trl;;;;(480) 862-2726
;1529 W Oberlin Way;;;;(317) 430-4590
;122 E Pasaro Dr;;;;(808) 833-8050
;27109 N 23rd Dr;;;;(765) 269-7867
;6522 W Bent Tree Dr;;;;(623) 476-5056
;5138 W Swayback Pass;;;;(623) 572-8942
;22645 N 33rd Ln;;;;(623) 221-1963
;22009 N 29th Dr;;;;(480) 427-1312
;22401 N 21st Pl;;;;(480) 621-8486
;2205 E Heston Dr;;;;(480) 201-1918
;19234 N 5th Pl;;;;(623) 582-9034
;2041 E Charlotte Dr;;;;(602) 334-4118
;18611 N 22nd St LOT 55;;;;(602) 953-3248
;20860 N 8th St;;;;(602) 327-3934
;2031 E Cielo Grande Ave;;;;(480) 473-9123
;2219 E Siesta Ln;;;;(909) 782-9930
;2256 E Monona Dr;;;;(623) 434-3555
;20838 N 7th Pl;;;;(602) 527-1929
;23222 N 42nd Pl;;;;(760) 637-2470
;3630 E Rockwood Dr;;;;(480) 818-0492
;4052 E Via Montoya Dr;;;;(316) 733-6247
;22037 N 55th St;;;;(602) 510-4978
;22852 N 52nd St;;;;(602) 448-6050
;17655 N 35th Pl;;;;(602) 301-2261
;17819 N 42nd Pl;;;;(602) 971-6210
;3402 E Carol Ann Way;;;;(210) 497-5843
;13840 N 34th St;;;;(480) 471-6192
;4633 E Desert Cactus St;;;;(602) 319-5969
;4240 E Desert Cactus St;;;;(480) 215-5349
;3458 E Acoma Dr;;;;(505) 916-9500
;17232 N 46th Pl;;;;(602) 821-0929
;3417 E Everett Dr;;;;(602) 992-2772
;3410 E Everett Dr;;;;(602) 544-6956
;2128 E Kings Ave;;;;(512) 961-0145
;3409 E Angela Dr;;;;(623) 546-2509
;1029 E Villa Theresa Dr;;;;(701) 202-7723
;18410 N 16th Pl;;;;(623) 780-0082
;2219 E Janice Way;;;;(715) 341-1955
;17806 N 13th Pl;;;;(412) 609-7862
;12829 N 18th Pl;;;;(602) 942-0342
;1346 E Voltaire Ave;;;;(602) 910-4617
;1364 E Victor Hugo Ave;;;;(480) 419-1304
;1706 E Gelding Dr;;;;(989) 339-7148
;1260 E Tierra Buena Ln;;;;(480) 371-7277
;224 E Eugie Ave;;;;(480) 217-6520
;325 W Campo Bello Dr;;;;(602) 866-8074
;17426 N 1st Dr;;;;(602) 393-8788
;1410 W Villa Rita Dr;;;;(480) 433-8813
;15233 N 23rd Dr;;;;(215) 672-4673
;320 W Baltusrol Cir;;;;(763) 559-1459
;2424 W Redfield Rd;;;;(602) 863-0637
;16036 N 11th Ave UNIT 1071;;;;(602) 494-2344
;2840 W Charleston Ave;;;;(602) 863-2305
;16310 N 35th Ln;;;;(602) 380-3549
;3559 W Hearn Rd;;;;(602) 938-4171
;14001 N 35th Dr;;;;(602) 942-3327
;16421 N 34th Ave;;;;(602) 512-1906
;3631 W Mandalay Ln;;;;(602) 717-3966
;3048 W Acoma Dr;;;;(920) 517-2364
;14638 N 35th Dr;;;;(602) 439-8820
;2223 W Surrey Ave;;;;(602) 586-8011
;13652 N 21st Ave;;;;(602) 942-2612
;3206 W Sunnyside Ave;;;;(716) 364-4936
;11630 N 25th Ave;;;;(623) 847-1523
;3848 W Garden Dr;;;;(323) 295-5046
;3720 W State Ave;;;;(602) 348-5841
;8807 N 39th Dr;;;;(623) 435-6185
;10016 N 36th Ave;;;;(602) 843-0330
;8737 N 28th Ave;;;;(602) 973-9015
;3609 W Belmont Ave;;;;(603) 312-9000
;438 W Harmont Dr;;;;(602) 234-7844
;1109 W Las Palmaritas Dr;;;;(602) 441-2480
;8211 N 17th Ave;;;;(602) 997-7448
;541 W Orangewood Ave;;;;(480) 201-8717
;21 W Beryl Ave;;;;(602) 795-2799
;231 E El Camino Dr;;;;(602) 980-1221
;8120 N 5th St;;;;(602) 944-7366
;11423 N 12th Pl;;;;(602) 652-9171
;10247 N Central Ave;;;;(602) 870-5377
;7023 N 11th Way;;;;(602) 944-6597
;2343 E Cholla St;;;;(602) 723-6244
;11430 N 43rd St;;;;(480) 515-1166
;3750 E Garden Dr;;;;(602) 663-1885
;3421 E Shangri La Rd;;;;(602) 717-3357
;3906 E Flower St;;;;(602) 955-6227
;3031 N 52nd St;;;;(602) 840-8179
;3331 E Roma Ave;;;;(602) 821-0198
;4837 E Palomino Rd;;;;(602) 840-8664
;3836 E Elm St;;;;(480) 777-7883
;4217 N 44th St;;;;(651) 633-5975
;4527 N 38th Pl;;;;(602) 955-3629
;5111 N 41st St;;;;(602) 432-8023
;5446 E Lafayette Blvd;;;;(602) 867-5802
;1908 E Glenrosa Ave;;;;(602) 266-5906
;3120 E Campbell Ave;;;;(480) 326-5272
;2613 E Pierson St;;;;(602) 999-5219
;2023 E Clarendon Ave;;;;(623) 341-1305
;2026 E Monterey Way;;;;(602) 957-6240
;2609 E Weldon Ave;;;;(602) 435-0663
;1625 E Turney Ave;;;;(630) 740-2642
;3002 N Manor Dr E;;;;(706) 364-8912
;3322 N Manor Dr W;;;;(480) 897-2921
;901 E Rose Ln;;;;(520) 559-9759
;33 W Missouri Ave UNIT 12;;;;(602) 388-3169
;1002 W Claremont St;;;;(602) 249-2432
;2102 W Berridge Ln;;;;(623) 387-2118
;2239 W Osborn Rd;;;;(602) 410-9165
;2232 W San Miguel Ave;;;;(308) 641-4829
;2201 W Coolidge St;;;;(505) 863-6909
;2406 W Marlette Ave;;;;(602) 249-1105
;2030 W Palo Verde Dr;;;;(602) 990-0243
;2021 W Palo Verde Dr;;;;(602) 954-0252
;1718 W Indian School Rd;;;;(602) 413-6052
;5939 W Cheery Lynn Dr;;;;(623) 247-4353
;3118 W Missouri Ave;;;;(623) 247-9793
;2722 W Coolidge St;;;;(602) 725-4759
;4101 W San Miguel Ave;;;;(623) 206-3578
;608 N 47th Pl;;;;(317) 446-6461
;2048 N 39th St;;;;(602) 486-0367
;520 N 48th St;;;;(602) 599-2221
;1716 N 32nd Pl;;;;(602) 790-6742
;4213 E Edgemont Ave;;;;(602) 561-4215
;4207 E Hubbell St;;;;(602) 468-9134
;2322 E Taylor St;;;;(602) 423-2367
;1821 N 22nd St;;;;(602) 264-3557
;2217 N 23rd Pl;;;;(425) 533-7015
;1324 E Moreland St;;;;(480) 245-0654
;1502 E Willetta St;;;;(602) 712-0803
;2536 N 12th St;;;;(602) 532-0486
;1714 S 5th St;;;;(623) 337-5031
;909 W Fillmore St;;;;(602) 795-1985
;1215 W Monroe St;;;;(574) 312-0350
;3324 W Latham St;;;;(602) 486-3750
;5002 W Earll Dr;;;;(323) 749-5950
;4217 N 51st Ave;;;;(623) 374-4987
;5802 W Turney Ave;;;;(623) 873-1685
;4708 N 49th Dr;;;;(602) 882-0536
;3101 N 75th Dr;;;;(623) 703-3957
;4214 N 77th Ave;;;;(623) 247-1080
;4610 N 75th Dr;;;;(602) 465-1832
;7309 W Devonshire Ave;;;;(623) 748-7854
;4728 N 78th Ave;;;;(623) 606-6420
;6919 W Mariposa St;;;;(602) 442-5075
;7271 W Camelback Rd;;;;(623) 247-3143
;6927 W Virginia Ave;;;;(602) 410-7223
;5931 W Monte Vista Rd;;;;(818) 365-1490
;6748 W Lewis Ave;;;;(623) 846-4692
;7339 W Raymond St;;;;(602) 694-1162
;4205 S 79th Dr;;;;(602) 736-7029
;5541 W Wood St;;;;(602) 682-7255
;6524 W Hilton Ave;;;;(623) 792-5460
;7422 W Florence Ave;;;;(623) 209-4496
;2835 S 69th Ave;;;;(623) 521-0103
;7005 W Trumbull Rd;;;;(602) 550-1372
;7820 W Wood Ln;;;;(623) 478-1545
;5009 W Gwen St;;;;(602) 606-2359
;4336 W Siesta Way;;;;(801) 785-4454
;8710 S 48th Ln;;;;(480) 814-8818
;7236 S 48th Ln;;;;(623) 329-7470
;5225 W Fawn Dr;;;;(602) 515-2785
;6611 S 67th Dr;;;;(602) 237-4879
;4849 S 5th Ave;;;;(602) 909-3252
;1830 W Atlanta Ave;;;;(608) 362-4435
;1619 W Moody Trl;;;;(480) 633-0880
;2624 W Summerside Rd;;;;(707) 628-6459
;5231 S Montezuma St;;;;(505) 526-5855
;8915 S 7th Dr;;;;(602) 350-9631
;4922 S 23rd Dr;;;;(302) 932-4610
;7712 S 25th Ave;;;;(602) 427-7202
;2437 W Spencer Run;;;;(623) 318-3057
;2328 E Wayland Dr;;;;(602) 369-3619
;1733 E Wier Ave;;;;(602) 276-5969
;5117 S 11th St;;;;(623) 933-8721
;2626 E Jessica Ln;;;;(602) 319-4156
;1421 E Irwin Ave;;;;(602) 276-2281
;322 E Thunderbird Trl;;;;(602) 243-9693
;1436 E Pedro Rd;;;;(507) 279-1892
;3921 E Carter Dr;;;;(602) 438-0126
;12039 S Half Moon Dr;;;;(480) 460-0064
;14435 S 35th St;;;;(480) 759-1376
;4534 E Bannock St;;;;(480) 659-8352
;4318 E Ahwatukee Dr;;;;(480) 759-4048
;4410 E Dry Creek Rd;;;;(609) 610-5485
;4502 E Chuckwalla Cyn;;;;(602) 509-8841
;12241 S 44th St;;;;(480) 275-5344
;10 W Glenhaven Dr;;;;(602) 820-2344
;15435 S 4th Dr;;;;(630) 254-1877
;1438 W Saltsage Dr;;;;(480) 283-9387
;625 E Pasadena Ave;;;;(309) 686-3702
;118 N Sterling Ave;;;;(309) 648-7582
;603 N Wood Thrush Dr;;;;(217) 721-4515
;7403 Durham Lake Ct;;;;(309) 689-3017
;1105 W Stratford Dr;;;;(651) 600-6467
;246 E Greenbrier Dr;;;;(309) 699-0519
;2 Sunset Ln;;;;(309) 397-3719
;3823 N Pinehurst Ct;;;;(309) 685-6202
;11120 N Antler Pl;;;;(309) 693-7228
;103 Peace Field Ln;;;;(812) 482-6790
;9344 W Minnezona Ave;;;;(909) 762-3054
;10301 W Campbell Ave;;;;(623) 853-0691
;8914 W Glenrosa Ave;;;;(623) 877-1527
;10809 W Elm St;;;;(623) 293-1315
;4441 N 102nd Way;;;;(914) 944-9650
;3413 S 122nd Ln;;;;(203) 560-8938
;9921 W Chipman Rd;;;;(313) 399-9666
;9371 W Cordes Rd;;;;(661) 330-6498
;3571 Alister Ave SW;;;;(704) 661-5339
;4011 Jubilee Ct SW;;;;(704) 262-9117
;214 Wescot Dr NW;;;;(704) 575-0083
;9603 Harvest Pond Dr NW;;;;(980) 621-8718
;3851 Meadow Ridge Dr NW;;;;(704) 785-8020
;1309 Inverness Pl NW;;;;(610) 509-3830
;4370 Coddle Creek Dr;;;;(704) 305-1310
;9818 Shearwater Ave NW;;;;(704) 784-9372
;3611 Tom Greene Rd;;;;(704) 764-3052
;117 Abbotsbury Ct;;;;(980) 339-5029
;1915 Madeira Cir;;;;(704) 256-9594
;6601 Blackwood Ln;;;;(704) 843-0134
;1205 Lightwood Rd;;;;(828) 707-3907
;8704 Deakin Ct;;;;(704) 256-4596
;6214 Pleasant Grove Rd;;;;(336) 973-0073
;8104 Skye Knoll Dr;;;;(704) 443-7235
;1415 Wilburn Park Ln NW;;;;(704) 248-6200
;5416 Bentgrass Run Dr;;;;(704) 674-3430
;4013 Halifax Rd;;;;(910) 237-3308
;506 Bradley Creek Point Rd;;;;(910) 256-9214
;1704 Market St;;;;(910) 762-5790
;1444 N Desoto St;;;;(480) 664-6265
;2130 W Ivanhoe St;;;;(480) 204-6948
;2809 N Comanche Dr;;;;(480) 899-6274
;2801 W Kent Dr;;;;(480) 543-9717
;515 S Apache Dr;;;;(480) 855-8625
;1289 W Boston St;;;;(520) 275-2642
;1013 E Sheffield Ave;;;;(480) 264-6376
;300 W Mission Dr;;;;(928) 445-4614
;310 W Marlboro Dr;;;;(480) 650-5765
;2054 N Illinois St;;;;(323) 585-0315
;943 E Carla Vista Pl;;;;(801) 703-6156
;736 E Ivanhoe St;;;;(480) 722-2804
;791 E Glenmere Dr;;;;(480) 288-9619
;550 S Emerson St;;;;(317) 843-2372
;197 S Los Feliz Dr;;;;(520) 668-9907
;4068 W Orchid Ln;;;;(480) 452-5952
;6380 W Corona Dr;;;;(480) 659-7497
;3519 W Tyson St;;;;(602) 437-4333
;6104 W Ivanhoe St;;;;(817) 602-3252
;3491 W Golden Ln;;;;(520) 241-4055
;931 N Beck Ct;;;;(816) 392-3797
;3901 W Dublin St;;;;(309) 657-7891
;659 E Washington Ave;;;;(480) 545-4375
;815 N Peppertree Dr;;;;(509) 539-2357
;3555 S Marion Way;;;;(480) 292-9037
;1831 E Cornell Dr;;;;(602) 751-3165
;827 W Leah Ln;;;;(773) 629-1774
;1530 W Longhorn Ct;;;;(951) 736-9167
;940 E Drexel Dr;;;;(918) 695-3605
;1155 E Galveston St;;;;(847) 902-4231
;1921 E Greentree Dr;;;;(480) 491-3869
;1346 E Cullumber St;;;;(480) 503-1138
;844 E Rawhide Ct;;;;(480) 227-7523
;3191 E Lark Dr;;;;(602) 471-6236
;287 W Buena Vista Dr;;;;(480) 831-6949
;7092 S Los Feliz Dr;;;;(480) 831-9580
;2476 E Bridgeport Pkwy;;;;(520) 705-9291
;108 E Horseshoe Ave;;;;(602) 538-9274
;63 E Megan St;;;;(480) 987-0019
;1090 S Yucca Pl;;;;(480) 689-8442
;1323 W Thompson Way;;;;(952) 890-2010
;7506 S Jentilly Ln;;;;(480) 545-4762
;845 S Honeysuckle Ln;;;;(480) 759-1992
;1401 E Mineral Rd;;;;(626) 294-0485
;536 W Horseshoe Ave;;;;(480) 926-6315
;1647 E Heather Ave;;;;(360) 491-6341
;860 W Laredo Ave;;;;(480) 374-0043
;3030 S Cascade Pl;;;;(480) 620-9160
;378 W Stacey Ln;;;;(480) 275-5703
;633 E Avenida Sierra Madre;;;;(480) 577-2800
;4594 S Emerson St;;;;(480) 710-6955
;467 W Encinas St;;;;(520) 647-3698
;1106 W Rawhide Ave;;;;(301) 871-6249
;5840 S Kenwood Ln;;;;(480) 988-9183
;521 S Ash St;;;;(949) 586-5481
;1153 N Marvin St;;;;(480) 229-6315
;3700 S Acacia Dr;;;;(602) 558-6242
;756 W Moore Ave;;;;(480) 503-0526
;1389 W Amanda Ln;;;;(480) 598-8767
;770 W Cherrywood Dr;;;;(602) 361-2547
;2711 E Augusta Ave;;;;(801) 298-1819
;4659 E Augusta Ave;;;;(480) 634-8508
;6450 S Senate St;;;;(480) 802-4556
;3709 E Peach Tree Dr;;;;(480) 821-5211
;6937 S Kimberlee Way;;;;(480) 883-6367
;6670 S Bradshaw Way;;;;(480) 203-2699
;2711 E Augusta Ave;;;;(801) 298-1819
;19341 S 209th Pl;;;;(717) 254-9712
;21004 E Sunset Dr;;;;(801) 633-4215
;19339 E Calle De Flores;;;;(480) 987-1240
;21692 E Waverly Dr;;;;(602) 628-8168
;19228 E Escalante Rd;;;;(480) 209-1862
;24023 S 208th Way;;;;(480) 835-1145
;21385 E Via Del Oro;;;;(586) 677-4902
;20110 S 188th Dr;;;;(480) 967-8288
;21190 E Camina Plata;;;;(480) 641-1089
;1447 W Rylie Ct;;;;(214) 415-6698
;22017 E Munoz Ct;;;;(619) 681-4333
;18545 E Aubrey Glen Rd;;;;(480) 802-2782
;19990 E Via Del Palo;;;;(660) 663-2589
;18912 E Via De Palmas;;;;(602) 739-0897
;3888 E Bellerive Dr;;;;(602) 885-9401
;22737 S 210th St;;;;(480) 319-5902
;21413 E Lords Way;;;;(480) 540-9372
;34113 N Alison Dr;;;;(626) 678-4680
;21296 S 222nd St;;;;(928) 978-4616
;9425 W Golddust Dr;;;;(480) 982-2326
;1822 S 39th St UNIT 113;;;;(602) 350-2534
;11366 E Savannah Cir;;;;(360) 698-7018
;10965 E Tumbleweed Ave;;;;(480) 258-9495
;10929 E Stanton Ave;;;;(602) 501-2743
;11444 E Persimmon Ave;;;;(480) 255-5333
;11444 E Shepperd Ave;;;;(480) 907-8898
;5265 S Hadron;;;;(406) 546-1912
;10932 E Bella Via;;;;(248) 343-3691
;10406 E Thornbush Ave;;;;(480) 227-3465
;4302 S Marron;;;;(480) 215-6513
;10907 E Thatcher Ave;;;;(816) 799-8385
;11241 E Roselle Ave;;;;(920) 471-5640
;872 N Harmony Ave;;;;(480) 497-4862
;3280 E Campbell Rd;;;;(480) 892-9531
;2201 E Marquette Dr;;;;(480) 656-9123
;3119 E Tremaine Ave;;;;(480) 892-8808
;1168 E Shannon St;;;;(480) 751-7913
;3801 E Ironhorse Ct;;;;(480) 307-7672
;3308 E Irwin Ave;;;;(480) 272-9611
;4314 E Blue Sage Ct;;;;(480) 988-5153
;10740 E Lobo Ave;;;;(480) 834-0205
;4601 E Murrieta Rd;;;;(480) 664-7084
;4353 S 165th Way;;;;(480) 988-1999
;11434 E Nido Ave;;;;(480) 279-5000
;9231 E Milagro Ave;;;;(480) 600-4341
;3425 E Mesquite St;;;;(805) 450-0805
;3286 E Azalea Dr;;;;(402) 203-5242
;3777 E Harrison St;;;;(480) 252-7307
;1858 S Sinova Ave;;;;(480) 329-5815
;148 S Portland Ave;;;;(480) 335-1075
;2748 E Warbler Rd;;;;(480) 612-2649
;11035 E Kiva Ave;;;;(480) 373-9426
;9936 E Keats Ave;;;;(360) 379-8310
;2241 S Osborn Ln;;;;(517) 230-4651
;4714 S Star Canyon Dr;;;;(480) 279-3765
;4238 E Milky Way;;;;(440) 785-2493
;3853 E Stiles Ln;;;;(317) 542-1297
;17009 S 172nd Way;;;;(480) 988-2240
;3465 E Parkview Dr;;;;(480) 205-1804
;2166 E Bonanza Ct;;;;(480) 652-6912
;4288 E Blue Sage Ct;;;;(217) 836-4912
;538 E Parkview Dr;;;;(480) 239-7243
;3640 E Gideon Way;;;;(480) 980-8929
;3558 E Chestnut Ln;;;;(480) 529-2928
;2860 E Palmdale Ln;;;;(480) 294-1636
;5507 S Joshua Tree Ln;;;;(480) 383-3955
;2364 E Susan Dr;;;;(801) 556-4494
;4153 E Sourwood Dr;;;;(508) 285-3990
;6427 S Blake Ct;;;;(480) 862-0288
;6045 S 174th Pl;;;;(623) 594-4412
;3662 E Powell Way;;;;(949) 395-1850
;23115 S 178th St;;;;(602) 550-7476
;3108 E Ridgewood Ln;;;;(703) 609-6029
;7375 S Debra Dr;;;;(602) 741-0838
;987 E Lodgepole Dr;;;;(480) 782-0185
;2394 E Stacey Rd;;;;(480) 633-1546
;1029 W Fremont Ave;;;;(309) 344-2628
;7215 E Fairview Ave;;;;(480) 248-9972
;19568 W Woodlands Ave;;;;(602) 268-0753
;22942 W Hopi St;;;;(623) 203-4664
;23398 W Hopi St;;;;(623) 386-7782
;20113 W Jackson St;;;;(559) 970-5538
;438 S 201st Ln;;;;(602) 334-6365
;11920 S 209th Dr;;;;(623) 386-2234
;19794 W Lincoln St;;;;(623) 606-1426
;10749 S Coolwater Dr;;;;(413) 572-1653
;2242 S 162nd Ln;;;;(937) 219-0048
;16236 W Superior Ave;;;;(623) 435-0077
;11219 S Indian Wells Dr;;;;(623) 327-1710
;16210 W Durango St;;;;(505) 281-2605
;16008 W Durango St;;;;(901) 338-3126
;18193 W Las Cruces Dr;;;;(952) 894-8941
;17213 W Pima St;;;;(217) 498-9633
;17760 W Summit Dr;;;;(520) 374-5714
;14707 S 185th Ave;;;;(602) 999-5223
;13360 S 186th Dr;;;;(831) 261-3399
;18418 W Jones Ave;;;;(928) 314-0917
;18556 W Sunward Dr;;;;(602) 323-1411
;20028 W Medlock Dr;;;;(623) 853-1653
;19250 W Sells Dr;;;;(928) 713-1598
;18824 W Marshall Ave;;;;(208) 936-1043
;5350 N Rattler Ct;;;;(623) 332-4124
;12631 W Windsor Blvd;;;;(623) 925-8048
;4508 N 199th Ave;;;;(623) 853-3293
;13149 W Fairmont Ave;;;;(623) 262-3886
;19325 W Sells Dr;;;;(602) 565-1865
;6111 N 135th Dr;;;;(602) 885-2458
;4391 N 196th Ave;;;;(559) 940-7408
;14593 W Merrell St;;;;(623) 412-4297
;15236 W Merrell St;;;;(214) 334-3976
;2466 N 131st Ln;;;;(602) 487-3276
;4723 N 150th Ave;;;;(623) 810-4972
;15646 W Ashland Ave;;;;(623) 251-7640
;460 S 5th Ave;;;;(520) 792-9811
;290 N Meyer Ave;;;;(520) 529-9325
;1202 N 2nd Ave;;;;(520) 622-7326
;5701 E South Wilshire Dr;;;;(520) 571-9556
;3019 W Mountain Dew St;;;;(402) 630-9083
;2707 N Calle De Romy;;;;(704) 782-0251
;4401 N Circulo De Las Chacras;;;;(818) 345-8434
;2660 E 10th St;;;;(520) 548-5435
;4436 N Placita Gacela;;;;(520) 299-9403
;467 S Stephanie Loop;;;;(520) 792-4932
;2142 E Juanita St;;;;(520) 881-3342
;3723 N Placita Vergel;;;;(480) 544-9263
;95 E Calle Resplendor;;;;(520) 325-2854
;3801 E Seneca St;;;;(281) 221-1352
;1505 W Breakwell St;;;;(520) 285-7008
;882 E Millenium Ct;;;;(520) 265-4114
;929 N 9th Ave;;;;(520) 358-6156
;5021 S Caballo Rd;;;;(520) 338-7087
;4240 N 4th Ave;;;;(409) 737-5472
;2617 E Waverly St;;;;(520) 327-2697
;1572 N Placita Colonia De Oro;;;;(520) 906-9189
;4094 W Rocky Spring Dr;;;;(520) 661-4494
;2601 E Linden St;;;;(520) 300-5094
;2655 N Sahuara Pl;;;;(520) 519-5228
;5332 E 10th St;;;;(520) 591-2517
;2787 W Greenstreak Dr;;;;(919) 699-8457
;403 E Croydon Park Rd;;;;(901) 289-0707
;1922 W Placita Tampico;;;;(970) 222-9099
;2049 W Revayah Pl;;;;(520) 404-0728
;6246 S Sun View Way;;;;(520) 407-7390
;8954 E Millett Dr;;;;(928) 304-6352
;8401 E 7th St;;;;(520) 203-7436
;7201 E 31st St;;;;(520) 722-2510
;6401 E Eli Dr;;;;(520) 891-0740
;8218 E Beverly St;;;;(520) 296-6376
;7604 E Valley Overlook Dr;;;;(443) 743-4582
;6345 E Malvern St;;;;(520) 302-3910
;285 S Langley Ave;;;;(520) 733-4148
;2648 N Indian Ridge Dr;;;;(520) 490-6958
;7245 E Shoreline Dr;;;;(520) 731-0780
;6978 E Calle Hermosa;;;;(520) 886-7208
;1240 E Moonridge Rd;;;;(520) 498-0933
;2691 W Capistrano Rd;;;;(520) 883-0142
;7253 N Meredith Pl;;;;(520) 579-7468
;9240 E Dolores St;;;;(520) 296-2861
;160 S Gold Mine Loop;;;;(520) 885-9726
;641 N Lazy J Way;;;;(703) 869-3529
;3521 N Bonanza Ave;;;;(520) 664-0253
;10614 E Bridgeport St;;;;(520) 279-2504
;7530 E Calle Los Arboles;;;;(520) 886-7841
;10733 E Winter Gold Dr;;;;(520) 395-1022
;9887 E Wash Oasis Pl;;;;(520) 275-8004
;207 S Fresno Spring Way;;;;(520) 398-6455
;10427 E Valley Quail Dr;;;;(520) 546-6386
;124 S London Station Rd;;;;(520) 298-8106
;480 S Stoner Ave;;;;(520) 979-1521
;3680 N Lynford Pl;;;;(520) 749-3368
;8310 N Winding Willow Way;;;;(520) 232-4657
;4866 W Willow Vista Ct;;;;(520) 891-6694
;8148 S Sunny River Pl;;;;(520) 574-4247
;7536 S Circulo Rio Blanco;;;;(239) 561-1094
;8331 S Via Del Barquero;;;;(520) 458-3969
;11445 E Vail Crest Dr;;;;(707) 815-0875
;13594 E Aviara Pl;;;;(520) 663-3455
;7741 S Avenida Bonita;;;;(520) 647-3698
;7160 E Cherrywood St;;;;(909) 331-7546
;1304 N Pasadena;;;;(480) 898-0805
;1940 S Standage;;;;(561) 909-5240
;1836 N Stapley Dr UNIT 82;;;;(214) 340-3990
;1540 N Diane St;;;;(480) 550-0067
;1145 N Kirchoff;;;;(480) 833-6440
;1760 N Parsell Cir;;;;(480) 962-7404
;1610 N Kachina;;;;(480) 518-0841
;1253 E Indigo St;;;;(703) 895-7791
;425 E 8th St;;;;(480) 844-9716
;1141 E Glade Cir;;;;(503) 970-6206
;2749 E Irwin Ave;;;;(480) 650-6576
;720 S Daley;;;;(480) 620-7038
;2144 E Diamond Ave;;;;(623) 418-4155
;3053 E Diamond Ave;;;;(817) 379-5571
;3829 E Covina St;;;;(586) 596-3279
;6428 E Fairfield St;;;;(480) 396-2812
;6204 E Colby St;;;;(602) 463-7783
;6258 E Evergreen St;;;;(480) 248-9040
;3902 E Des Moines St;;;;(480) 641-8542
;1043 N Tambor Cir;;;;(480) 993-3494
;3952 N Arboles Cir;;;;(602) 653-0045
;9029 E Indigo St;;;;(360) 951-5908
;2463 N Atwood;;;;(480) 227-5355
;8632 E Mallory St;;;;(480) 345-2034
;6925 E Saddleback Cir;;;;(714) 580-9350
;11442 E Northridge St;;;;(480) 892-5293
;225 N Wesley;;;;(406) 494-2993
;11241 E Cicero St;;;;(480) 751-7297
;10211 E Caballero St;;;;(480) 807-8536
;716 S Edgewater Dr;;;;(480) 985-9719
;817 S Del Rancho;;;;(480) 354-8323
;11101 E Grove St;;;;(520) 981-1201
;347 S Leandro;;;;(720) 202-2432
;451 S Hawes Rd UNIT 63;;;;(480) 272-8922
;11361 E Escondido Ave;;;;(310) 631-0275
;10646 E Emerald Ave;;;;(480) 220-3567
;10238 E Knowles Ave;;;;(805) 264-5912
;7431 E Lobo Ave;;;;(602) 692-5991
;746 W 2nd Pl;;;;(480) 964-5549
;819 N Robson;;;;(480) 330-4688
;6901 E Diamond St;;;;(480) 675-8936
;230 E Loma Vista Dr;;;;(480) 446-7570
;2763 E Laurel St;;;;(480) 833-3705
;4409 S Ventura Dr;;;;(787) 385-1711
;1548 N Loma Vis;;;;(480) 924-8187
;3248 S Birchett Dr;;;;(480) 220-3755
;1139 E Balboa Dr;;;;(480) 968-5645
;2055 E Encanto St;;;;(602) 908-9199
;8430 E Granada Rd;;;;(443) 504-4240
;3302 N 81st St;;;;(480) 946-5803
;7933 E Culver St;;;;(520) 288-4310
;534 E Papago Dr;;;;(480) 945-6217
;1102 W Dixon St;;;;(480) 664-1405
;8732 E Virginia Ave;;;;(847) 945-6596
;3445 E Indigo Cir;;;;(770) 619-5390
;1245 N Hillcrest;;;;(602) 418-6284
;2436 E Balboa Dr;;;;(619) 348-2028
;2225 N 87th Way;;;;(616) 399-5869
;929 N Orchard;;;;(480) 830-5585
;2228 E Jaeger St;;;;(602) 670-0629
;4831 S Carmine;;;;(480) 777-8839
;9462 E Osage Ave;;;;(480) 329-5941
;2132 N Rosburg Dr;;;;(480) 600-2721
;5840 E Norland St;;;;(480) 324-1438
;3461 N Reynolds;;;;(602) 920-3686
;5951 E Tinto St;;;;(480) 500-5285
;4213 N Tabor;;;;(402) 213-9484
;6249 E Camelot Dr;;;;(480) 299-2207
;1538 W 6th St;;;;(480) 782-2468
;1328 W 7th St;;;;(310) 215-9427
;1220 S Mill Ave;;;;(480) 268-9971
;3408 S Roberts Rd;;;;(573) 703-7236
;8637 E Buena Terra Way;;;;(480) 767-3222
;6982 N 83rd St;;;;(602) 957-8082
;8507 E Montecito Ave;;;;(480) 860-6468
;3405 N Miller Rd;;;;(602) 252-7505
;6223 E Calle Redonda;;;;(480) 946-3879
;8563 E Via De Los Libros;;;;(602) 796-1060
;5840 E Edgemont Ave;;;;(480) 994-5579
;6107 N Palo Cristi Rd;;;;(480) 947-1943
;4010 E Hazelwood St;;;;(602) 265-8517
;7014 E Palo Verde Ln;;;;(602) 376-9091
;6911 E Jackrabbit Rd;;;;(480) 949-0395
;7023 N Via Nueva;;;;(480) 556-9886
;8612 N 66th Pl;;;;(650) 380-4510
;5030 E Mockingbird Ln;;;;(480) 451-0190
;6229 E Mountain View Rd;;;;(602) 499-0740
;5272 E Onyx Ave;;;;(480) 948-1431
;5134 E Beryl Ave;;;;(602) 616-7804
;5519 E Beryl Ave;;;;(480) 367-9401
;16202 N 62nd Way;;;;(480) 483-1479
;4801 E Evans Dr;;;;(480) 635-2130
;6416 E Beck Ln;;;;(773) 490-5356
;5339 E Cortez Dr;;;;(480) 607-7909
;6612 E Presidio Rd;;;;(602) 363-5322
;11463 E Christmas Cholla Dr;;;;(480) 214-3081
;10262 E Jasmine Dr;;;;(480) 225-0395
;9094 E Topeka Dr;;;;(310) 591-0091
;10418 E Meadowhill Dr;;;;(641) 373-1614
;11447 E Paradise Ln;;;;(480) 502-3265
;9802 E South Bend Dr;;;;(480) 272-8832
;9137 E Calle De Valle Dr;;;;(480) 563-5699
;9891 E Desert Jewel Dr;;;;(480) 538-5387
;20450 N 94th Way;;;;(480) 994-8171
;11621 E Winchcomb Dr;;;;(480) 473-1345
;9401 E Desert Village Dr;;;;(480) 419-8288
;15692 N 104th St;;;;(480) 443-0500
;10845 E Candlewood Dr;;;;(734) 761-9520
;23965 N 74th Pl;;;;(480) 269-4738
;10387 E Robs Camp Rd;;;;(619) 537-0246
;16013 N 111th Pl;;;;(480) 515-9075
;8050 E Mariposa Grande Dr;;;;(480) 513-0918
;10110 E Topaz Dr;;;;(623) 391-1545
;7525 E Gainey Ranch Rd UNIT 209;;;;(480) 951-6985
;10097 E Bayview Dr;;;;(203) 438-7272
;9760 E Doubletree Ranch Rd;;;;(480) 614-8392
;8025 E Ferzon Trl;;;;(480) 276-3755
;12068 N 137th St;;;;(480) 489-0199
;12571 N 146th Way;;;;(623) 252-4405
;10624 N 124th Pl;;;;(408) 627-0019
;14291 E Coyote Rd;;;;(480) 661-4726
;11864 N 137th Way;;;;(480) 314-1309
;11776 N 119th St;;;;(239) 597-3133
;9578 N 132nd Pl;;;;(602) 300-1639
;11238 N 117th St;;;;(602) 334-5314
;11944 E Desert Trail Rd;;;;(614) 775-0788
;9035 E Blanche Dr;;;;(480) 532-1858
;9079 E Hillery Dr;;;;(480) 332-8490
;9854 E Acacia Dr;;;;(480) 257-9006
;8907 E Lupine Ave;;;;(480) 620-3072
;1531 Blue Heron Ln;;;;(904) 277-8300
;1893 Palm Dr;;;;(765) 437-3984
;526 S 5th St;;;;(904) 753-2785
;128 Sea Marsh Rd;;;;(619) 354-0035
;96143 Barnwell Cir;;;;(904) 491-4383
;85235 Sagaponack Dr;;;;(912) 674-0510
;103 S 10th St;;;;(201) 280-8993
;95022 Bermuda Dr;;;;(478) 452-6375
;229 S 8th St;;;;(904) 583-4722
;407 Willow Green Dr;;;;(904) 394-8922
;405 Valderia Dr;;;;(904) 264-6827
;360 Vineyard Ln;;;;(904) 814-9834
;1539 Slash Pine Ct;;;;(904) 291-7481
;2163 Plainfield Ave;;;;(904) 525-9762
;574 Gulfstream Trl W;;;;(510) 799-0384
;2598 Paces Ferry Rd N;;;;(757) 374-4538
;2797 Crumplehorn Ln;;;;(850) 459-5859
;3375 Deerfield Pointe Dr;;;;(904) 778-4030
;1926 Smith St;;;;(904) 592-7256
;237 W Silverthorn Ln;;;;(904) 398-5891
;555 Village Grande Dr;;;;(229) 291-2586
;40 Suncoast Ln;;;;(772) 223-9839
;172 Myrtle Brook Bnd;;;;(770) 965-3387
;215 Valley Grove Dr;;;;(860) 930-8503
;96 Frontierland Trl;;;;(904) 412-6981
;242 Village Grande Dr;;;;(901) 309-0325
;307 Captiva Dr;;;;(330) 394-7035
;5452 Fort Caroline Rd;;;;(404) 299-3540
;2905 Woodtop Dr;;;;(573) 424-8332
;1430 Ionia St;;;;(561) 389-1561
;1536 Fairfield Pl;;;;(904) 610-0576
;2456 Ironwood Dr;;;;(718) 465-2438
;7951 Pipit Ave;;;;(912) 965-9796
;1811 E Bartram Cir;;;;(904) 388-0364
;5812 Clifton Ave;;;;(434) 296-7291
;2157 Jernigan Rd;;;;(904) 395-8624
;1835 Mallory St;;;;(904) 389-5613
;5424 Santa Rosa Way;;;;(603) 437-5597
;4647 Glenwood Ave;;;;(904) 609-5433
;2669 Ernest St;;;;(904) 634-7614
;6275 Kellow Dr;;;;(904) 591-3091
;5721 Teeler Ave;;;;(904) 249-6469
;8988 Kipper Dr;;;;(904) 352-3401
;2842 Green St;;;;(360) 675-5592
;2826 Lydia St;;;;(415) 806-5017
;930 Bordeau Ave W;;;;(904) 619-1818
;1395 Carvill Ave;;;;(904) 450-0488
;506 Clifton Bluff Ln;;;;(904) 721-6109
;238 W 10th St;;;;(904) 619-9506
;1958 River Rd;;;;(904) 900-1812
;2769 Riverside Ave;;;;(912) 496-4018
;1400 Old Middleburg Rd N;;;;(904) 438-5127
;6250 Terry Rd;;;;(904) 296-4236
;1717 McQuade St;;;;(904) 353-7571
;4442 River Trail Rd;;;;(904) 743-0560
;1437 Somerville Rd;;;;(904) 396-4244
;2741 Parental Home Rd;;;;(904) 591-7513
;1135 Molokai Rd;;;;(904) 855-1161
;4344 Bedivere Rd;;;;(904) 574-9060
;1369 Hollywood Ave;;;;(904) 389-2297
;4740 Cardinal Blvd;;;;(904) 710-9954
;2048 N Laura St;;;;(949) 650-0470
;2228 Saul Dr;;;;(904) 725-3317
;7233 Holiday Hill Ct;;;;(904) 721-7549
;7695 Rolling Hills Dr;;;;(904) 716-4049
;7661 Vale Dr;;;;(904) 412-1975
;4524 Lane Ave S;;;;(904) 771-7134
;5005 Arapahoe Ave;;;;(704) 609-3519
;6153 Autlan Dr;;;;(904) 771-5202
;4611 Verona Ave;;;;(904) 234-1015
;3905 Meadowview Dr N;;;;(904) 641-9170
;13308 Santorini Dr;;;;(904) 469-4700
;11635 Hidden Hills Dr S;;;;(904) 642-3509
;1620 Oak Ridge Dr W;;;;(904) 646-3184
;1694 Timber Crossing Ln;;;;(904) 343-1020
;12220 Smoke Ridge Cir S;;;;(904) 361-3183
;4447 Beacon Dr W;;;;(904) 641-7118
;5142 Creek Crossing Dr;;;;(904) 928-0416
;3548 Sunfish Dr;;;;(423) 762-3854
;12643 Black Angus Dr;;;;(904) 624-2073
;9294 Heckscher Dr;;;;(904) 251-1113
;13825 Goodson Pl;;;;(904) 718-5438
;12532 Itani Way;;;;(904) 434-7554
;12890 Moose Rd;;;;(904) 714-6938
;3371 Hickory Leaf Ct;;;;(904) 654-6804
;15137 Cape Dr N;;;;(904) 757-4140
;14494 Spring Light Cir;;;;(904) 379-6993
;15703 Chir Pine Dr;;;;(832) 865-6864
;11945 Iron Creek Rd;;;;(904) 361-1078
;54131 Vontz Cir;;;;(904) 879-4263
;15402 Turkoman Cir;;;;(904) 768-5055
;6956 Sandle Dr;;;;(256) 454-6835
;120 Katherine Rd;;;;(904) 536-4052
;12373 Cherry Bluff Dr;;;;(850) 207-7092
;16002 Tisons Bluff Rd;;;;(850) 421-1925
;1845 Daytona Ln N;;;;(904) 349-3135
;13244 Avery Park Ln;;;;(904) 674-5966
;6961 Rapid River Dr W;;;;(904) 765-0453
;11803 Seashore Ln;;;;(850) 238-8935
;117 Grand Heron Dr;;;;(850) 249-8448
;2418 Pelican Bay Ct;;;;(850) 867-5702
;201 Marlin Cir;;;;(805) 889-5397
;3511 Treasure Cir;;;;(865) 945-2767
;4708 Bigleaf Ln;;;;(478) 225-7704
;418 Deep Forest Ln;;;;(850) 234-2582
;115 Biltmore Pl;;;;(850) 527-3598
;107 Bonaire Dr;;;;(850) 774-4986
;16215 Sky Ave;;;;(317) 462-4621
;406 N Pace Blvd;;;;(850) 384-5911
;6201 Sarah Dr;;;;(850) 478-6702
;1501 E Brainerd St;;;;(828) 234-5173
;1420 E Moreno St;;;;(850) 434-1840
;3161 Torres Ave;;;;(850) 207-1627
;3305 Bayou Blvd;;;;(904) 433-2784
;1118 E Fisher St;;;;(850) 434-1603
;6232 Vicksburg Dr;;;;(850) 261-4325
;3328 Wellington Rd;;;;(615) 476-2017
;1220 Palisade Cir;;;;(850) 418-0680
;1255 Tamara Dr;;;;(850) 484-8850
;4540 Treeline Dr;;;;(919) 481-0383
;1130 Dunmire St;;;;(850) 479-9125
;4101 Argenta Way;;;;(850) 433-2281
;6510 Allyn Way;;;;(850) 477-1311
;1727 Creighton Rd;;;;(850) 525-1793
;2083 Longleaf Dr;;;;(850) 554-8515
;3352 Two Sisters Way;;;;(850) 456-4822
;107 Brandon Ave;;;;(850) 456-2383
;7135 Moore Ave;;;;(850) 380-2604
;6724 Bellview Pines Pl;;;;(850) 207-8788
;6429 Bellview Pines Pl;;;;(850) 941-2178
;5721 Perkins St;;;;(850) 225-4493
;7101 Redondo Dr;;;;(850) 450-7970
;7811 Coronet Ln;;;;(850) 497-5537
;1619 Spalding Cir;;;;(850) 505-7532
;3308 Mills Bayou Dr;;;;(850) 525-2575
;9451 Mabel St;;;;(850) 477-8066
;11490 Clear Creek Dr;;;;(850) 529-2252
;4325 Burtonwood Dr;;;;(262) 252-4858
;8208 Durand Ave;;;;(850) 791-6035
;8839 Meadowbrook Dr;;;;(248) 373-5648
;705 Lexington Rd;;;;(850) 476-6496
;490 Evening Falls Dr;;;;(205) 999-5294
;224 Kaylyn Rd;;;;(850) 456-1348
;944 Aurelias Pl;;;;(440) 356-5939
;449 Strandview Dr;;;;(850) 471-9789
;2225 Limerick Dr;;;;(850) 528-6908
;5016 Vernon Rd;;;;(850) 206-4697
;1009 Mimosa Dr;;;;(727) 251-3522
;714 Miccosukee Rd;;;;(863) 559-9678
;411 Terrace St;;;;(603) 284-6164
;3355 Cameron Chase Dr;;;;(407) 442-4360
;1101 Sandler Ridge Rd;;;;(850) 878-2329
;11362 Granny Ln;;;;(850) 421-4205
;2971 Compton Way;;;;(850) 894-6400
;7551 Bowling Green Dr;;;;(608) 752-0675
;4459 Argyle Ln;;;;(850) 877-4029
;3162 Corrib Dr;;;;(850) 893-2700
;3175 Ferns Glen Dr;;;;(850) 893-2442
;2664 Bantry Bay Dr;;;;(561) 252-0150
;1286 Jeffery Rd;;;;(636) 265-0165
;9019 Winged Foot Dr;;;;(850) 907-0323
;6840 Spicewood Ln;;;;(850) 668-1914
;3101 Persimmon Dr;;;;(850) 893-4797
;7770 Skipper Ln;;;;(850) 668-7623
;1520 Big Sky Way;;;;(850) 656-6336
;4523 Dreisler St;;;;(813) 900-8093
;3401 River Grove Dr;;;;(813) 238-2965
;2319 Fern Cir;;;;(813) 935-3737
;3935 W Eden Roc Cir;;;;(813) 833-0516
;4426 W Trilby Ave;;;;(813) 831-7624
;3909 W Tacon St;;;;(813) 837-9063
;3909 S Trask St;;;;(813) 837-5211
;2827 N Nebraska Ave;;;;(913) 364-5374
;2321 W Fig St;;;;(727) 596-5045
;4718 W Wallace Ave;;;;(813) 286-6557
;3923 W Bay Vista Ave;;;;(813) 253-3919
;2331 W Chestnut St;;;;(813) 422-4124
;6204 N Cameron Ave;;;;(813) 215-1597
;709 S Himes Ave;;;;(813) 348-4994
;4325 S Hubert Ave;;;;(813) 298-5025
;1018 E Jean St;;;;(813) 480-1092
;5312 S Russell St;;;;(573) 999-3584
;5901 Beacon Shores St;;;;(813) 902-0888
;7004 Lambright Ct;;;;(813) 249-5233
;3823 W Gray St;;;;(813) 574-7397
;721 Grand Cir;;;;(347) 446-2853
;2906 W Hawthorne Rd;;;;(813) 837-2589
;4601 N Emerald Ave;;;;(813) 373-5101
;1803 E Frierson Ave;;;;(786) 261-0346
;3017 W Rio Vista Ave;;;;(813) 766-5921
;7124 Forest Mere Dr;;;;(941) 962-4350
;2801 N 76th St;;;;(516) 669-2674
;4107 W Neptune St;;;;(813) 317-7805
;913 S Golf View St;;;;(813) 254-1034
;5426 N River Shore Dr;;;;(813) 884-0672
;1864 Nebraska Ave NE;;;;(413) 331-0109
;1927 60th Ter NE;;;;(847) 866-8682
;1911 Kentucky Ave NE;;;;(727) 823-4906
;1786 Nevada Ave NE;;;;(704) 585-6126
;2213 Branch Hill St;;;;(410) 721-8212
;10102 N Highland Ave;;;;(813) 915-4049
;310 E 130th Ave;;;;(727) 608-0511
;2201 Branch Hill St;;;;(813) 933-6714
;15536 Woodway Dr;;;;(813) 961-8619
;2036 Gregory Dr;;;;(813) 972-1240
;16219 Sierra De Avila;;;;(813) 335-2298
;14906 N Rome Ave;;;;(480) 452-8410
;5905 N Habana Ave;;;;(813) 775-8638
;6011 Mariners Watch Dr;;;;(423) 991-3883
;6712 Jennifer Dr;;;;(813) 774-8867
;5021 E 110th Ave;;;;(239) 290-4064
;5017 E Liberty St;;;;(813) 766-2889
;509 Royal Greens Dr;;;;(813) 980-3800
;405 Biltmore Ave;;;;(941) 922-6526
;2519 Chapel Way;;;;(813) 971-5936
;3018 Samara Dr;;;;(813) 935-2668
;2007 Waikiki Way;;;;(813) 263-9401
;8603 Misty Springs Ct;;;;(518) 253-2955
;135 NW 52nd St;;;;(207) 607-2953
;1420 SW 12th St;;;;(305) 673-5126
;2427 SW 12th St;;;;(305) 975-1941
;1703 SW 10th St;;;;(305) 812-7229
;825 SW 23rd Rd;;;;(305) 860-8240
;1501 SW 30th Ave;;;;(786) 716-6751
;141 SW 51st Ct;;;;(305) 445-7825
;200 NE 48th Ter;;;;(781) 209-8898
;1960 NW 34th Ave;;;;(305) 797-9976
;2510 NW North River Dr;;;;(305) 910-4299
;1224 SW 20th St;;;;(305) 854-0985
;661 NE 53rd St;;;;(305) 864-4798
;4020 NW 8th Ave;;;;(305) 759-2284
;60 Samana Dr;;;;(305) 444-9035
;30 Palm Ave;;;;(305) 896-3733
;112 W Palm Midway;;;;(561) 741-4394
;1530 W 24th St;;;;(305) 531-1848
;15 Bay Heights Dr;;;;(305) 858-6930
;319 NW 58th Ave;;;;(305) 262-5293
;3816 Matheson Ave;;;;(305) 663-4720
;3930 Hardie Ave;;;;(732) 946-0000
;1209 Ferdinand St;;;;(305) 606-4633
;5210 SW 7th St;;;;(305) 567-9398
;5910 N Bayshore Dr;;;;(305) 456-7252
;1053 NE 94th St;;;;(305) 775-6507
;1221 NE 87th St;;;;(786) 457-7781
;1095 NE 84th St;;;;(305) 754-5681
;1030 NE 99th St;;;;(786) 290-3496
;1211 NE 81st Ter;;;;(305) 940-9661
;857 NE 98th St;;;;(305) 757-2494
;823 NE 72nd St;;;;(305) 758-3567
;2637 Flamingo Dr;;;;(786) 556-2229
;6060 La Gorce Dr;;;;(305) 812-3528
;1425 SW 84th Ct;;;;(305) 265-2139
;7200 SW 4th St;;;;(305) 776-4198
;320 SW 68th Ave;;;;(305) 510-2633
;1611 NW 65th St;;;;(305) 691-1985
;3121 NW 103rd St;;;;(786) 200-3292
;599 Glenridge Rd;;;;(786) 353-2225
;320 Woodcrest Rd;;;;(305) 361-9565
;1040 NW 87th St;;;;(786) 506-9609
;56 NW 70th St;;;;(786) 616-8529
;9156 NW 3rd Ave;;;;(305) 756-8711
;60 NW 91st St;;;;(305) 758-9753
;922 Garden Dr;;;;(407) 462-8606
;1120 Kenwood Ave;;;;(407) 654-6765
;1600 Palmer Ave;;;;(407) 619-5424
;1620 Oakhurst Ave;;;;(954) 524-9969
;645 Pansy Ave;;;;(321) 663-1433
;2325 Chantilly Ave;;;;(407) 718-6987
;1059 N Bumby Ave;;;;(407) 895-3788
;1442 Yale St;;;;(407) 835-1266
;1405 Symphony Ct;;;;(321) 388-7363
;201 W Winter Park St;;;;(407) 804-6352
;513 Rugby St;;;;(256) 656-9608
;1222 Conley St;;;;(321) 277-1509
;2608 S Crystal Lake Dr;;;;(407) 547-5079
;2165 Peel Ave;;;;(407) 894-8735
;3029 Greenmount Rd;;;;(407) 253-1050
;730 Florida St;;;;(407) 432-1320
;2408 Gresham Dr;;;;(609) 290-1714
;4408 Rockledge Rd;;;;(407) 281-9024
;7712 Hoosier Pl;;;;(407) 380-9609
;414 S Oxalis Ave;;;;(407) 854-4724
;7117 Turquoise Ln;;;;(407) 879-4193
;5338 Fox Briar Trl;;;;(321) 917-6417
;4100 Rose Petal Ln;;;;(407) 766-4818
;4221 Robbins Ave;;;;(407) 800-7733
;5031 Signal Hill Rd;;;;(803) 201-0676
;4756 Robbins Ave;;;;(407) 291-8380
;6611 Sharon Dr;;;;(407) 734-5275
;5743 Rywood Dr;;;;(407) 921-7151
;325 Pearlwood St;;;;(407) 521-2088
;23 Judith Ln;;;;(407) 668-4740
;4029 Teriwood Ave;;;;(407) 286-4693
;4862 Whistler Dr;;;;(407) 348-2113
;2971 Bridgehampton Ln;;;;(407) 380-8873
;3622 Gatewood Dr;;;;(407) 826-4940
;5298 Jade Cir;;;;(321) 352-7762
;2825 Alsace Ct;;;;(407) 493-7123
;1664 Hanks Ave;;;;(407) 687-4165
;8938 Turnberry Ct;;;;(407) 383-2437
;7013 Delora Dr;;;;(407) 351-1324
;7703 Twin Pines Ct;;;;(321) 732-3232
;7035 Somerton Blvd;;;;(407) 233-4286
;7712 Aquamarine Ct;;;;(732) 408-7657
;2743 Lakefern Ave;;;;(407) 249-9436
;3735 Ventura Pl;;;;(407) 277-7257
;8054 Excalibur Ct;;;;(407) 482-9226
;2110 Victoria Falls Dr;;;;(352) 242-6729
;1514 Cedar Lake Dr;;;;(917) 704-0987
;1727 Cedar Lake Dr;;;;(407) 488-6886
;9057 Yonath St;;;;(201) 962-2761
;13947 Rushing Creek Run;;;;(407) 207-4182
;12162 Greco Dr;;;;(321) 297-7509
;3942 Parkhouse Dr;;;;(407) 756-2236
;9751 Sweetleaf St;;;;(703) 966-9382
;9313 Mustard Leaf Dr;;;;(321) 794-0063
;9241 Smithies St;;;;(571) 215-2147
;8787 Coco Plum Pl;;;;(407) 438-2596
;9853 Worthington Ridge Rd;;;;(407) 403-2756
;5858 Cheshire Cove Ter;;;;(407) 666-1748
;12241 Sonnet Ave;;;;(407) 456-1523
;10024 Chorlton Cir;;;;(407) 482-2602
;9802 Pecan Hickory Way;;;;(407) 760-5337
;13517 Kirby Smith Rd;;;;(407) 394-5249
;8152 Wellsmere Cir;;;;(407) 488-6204
;6097 Froggatt St;;;;(787) 739-6011
;7743 Casasia Ct;;;;(407) 523-0860
;7866 Bardmoor Hill Cir;;;;(407) 822-5199
;6630 Westmont Dr;;;;(407) 299-8806
;7108 Tallowtree Ln;;;;(407) 290-8188
;7244 Hunterdon Dr;;;;(407) 734-5619
;961 Almond Tree Cir;;;;(407) 506-2712
;5603 Parkdale Dr;;;;(407) 855-5745
;627 Glen Grove Ln;;;;(321) 436-8683
;4614 Alrix Dr;;;;(321) 352-7769
;734 Charlotte Pl NW;;;;(404) 794-2735
;963 Sims Ave NW;;;;(229) 529-6988
;1344 Benteen Park Dr SE;;;;(478) 442-2166
;1449 Hosea L Williams Dr;;;;(772) 607-2200
;1760 Ellen St NW;;;;(678) 488-0667
;511 Pelton Pl NW;;;;(770) 907-9005
;2040 Emery Pl;;;;(678) 404-8651
;424 Drexel Ave;;;;(404) 373-1391
;138 Berean Ave SE;;;;(404) 525-9904
;1727 Flat Shoals Rd;;;;(917) 520-1104
;2013 River Birch Lane;;;;(404) 384-7321
;1963 Timberwood Trce;;;;(770) 995-3597
;1450 Van Vleck Ave;;;;(404) 558-0179
;424 Ansley St;;;;(770) 712-4396
;676 Pasley Ave;;;;(404) 630-0174
;957 Burns Dr SW;;;;(404) 284-8111
;154 Clay St SE;;;;(404) 370-9733
;2003 Westside Blvd;;;;(334) 614-0164
;306 Coventry Rd;;;;(678) 357-9847
;2048 Village Crest Dr NW;;;;(614) 746-9967
